COSMOS 2433 (720)       
1 32275C 07052A   21005.99979167 -.00000000  00000-0  00000-0 0    57
2 32275  66.0328  22.1823 0005445 258.4272 357.1460  2.13103909    17
COSMOS 2432 (719)       
1 32276C 07052B   21005.99979167 -.00000000  00000-0  00000-0 0    58
2 32276  66.0455  22.2745 0011701 317.1139 248.1235  2.13103238    14
COSMOS 2434 (721)       
1 32393C 07065A   21005.99979167  .00000000  00000-0  00000-0 0    51
2 32393  64.5061 259.4749 0003906  71.3437  72.1833  2.13102983    11
COSMOS 2436 (723)       
1 32395C 07065C   21005.99979167  .00000000  00000-0  00000-0 0    53
2 32395  64.5151 259.5265 0016048   2.8971 276.7936  2.13102547    12
COSMOS 2456 (730)       
1 36111C 09070A   21005.99979167 -.00000000  00000-0  00000-0 0    52
2 36111  64.2531 139.1533 0002530 333.8546 342.3802  2.13098896    11
COSMOS 2457 (733)       
1 36112C 09070B   21005.99979167 -.00000000  00000-0  00000-0 0    53
2 36112  64.2357 139.0421 0006325 155.0737 284.2378  2.13101147    11
COSMOS 2459 (731)       
1 36400C 10007A   21005.99979167 -.00000000  00000-0  00000-0 0    55
2 36400  65.9278  21.0929 0019784 358.8831 114.8156  2.13103499    19
COSMOS 2460 (732)       
1 36402C 10007C   21005.99979167 -.00000000  00000-0  00000-0 0    57
2 36402  65.9149  21.0524 0002724 270.9266 145.9574  2.13106299    11
COSMOS 2464 (736)       
1 37139C 10041C   21005.99979167  .00000000  00000-0  00000-0 0    52
2 37139  64.1056 258.8128 0028868  11.6602 353.9817  2.13100517    16
COSMOS 2476 (744)       
1 37867C 11064A   21005.99979167 -.00000000  00000-0  00000-0 0    57
2 37867  64.5500 140.3024 0019223 233.5632 343.6002  2.13101578    15
COSMOS 2477 (745)       
1 37868C 11064B   21005.99979167 -.00000000  00000-0  00000-0 0    58
2 37868  64.5580 140.3612 0016733 233.8703 161.7086  2.13101402    19
COSMOS 2475 (743)       
1 37869C 11064C   21005.99979167 -.00000000  00000-0  00000-0 0    59
2 37869  64.5653 140.3645 0020220 256.6958  96.4609  2.13101551    18
COSMOS 2485 (747)       
1 39155C 13019A   21005.99979167 -.00000000  00000-0  00000-0 0    51
2 39155  64.7168 140.6159 0019814 229.0310  32.6643  2.13101583    12
COSMOS 2492 (754)       
1 39620C 14012A   21005.99979167 -.00000000  00000-0  00000-0 0    52
2 39620  65.8038  20.8071 0014962 315.8579 340.7672  2.13102842    13
COSMOS 2500 (755)       
1 40001C 14032A   21005.99979167 -.00000000  00000-0  00000-0 0    59
2 40001  65.7443  20.7075 0007816 223.2421 293.4023  2.13102231    14
COSMOS 2501 (702)       
1 40315C 14075A   21005.99979167  .00000000  00000-0  00000-0 0    53
2 40315  63.8196 259.6816 0015549 210.4292 112.0047  2.13101028    13
COSMOS 2514 (751)       
1 41330C 16008A   21005.99979167 -.00000000  00000-0  00000-0 0    50
2 41330  65.5464  20.5299 0011702 225.4119 114.0681  2.13102462    18
COSMOS 2516 (753)       
1 41554C 16032A   21005.99979167  .00000000  00000-0  00000-0 0    54
2 41554  64.7808 259.3291 0006092 257.0800 336.7196  2.13102306    18
COSMOS 2522 (752)       
1 42939C 17055A   21005.99979167  .00000000  00000-0  00000-0 0    58
2 42939  64.2773 260.0496 0006145 256.0562 201.2630  2.13101951    15
COSMOS 2527 (756)       
1 43508C 18053A   21005.99979167 -.00000000  00000-0  00000-0 0    51
2 43508  64.8810 140.5057 0006967 219.4845 269.8194  2.13102320    16
COSMOS 2529 (757)       
1 43687C 18086A   21005.99979167  .00000000  00000-0  00000-0 0    54
2 43687  64.4913 260.2237 0009071 280.4481 132.4399  2.13101949    15
COSMOS 2534 (758)       
1 44299C 19030A   21005.99979167  .00000000  00000-0  00000-0 0    54
2 44299  64.5618 260.0594 0012584 297.2733 250.5389  2.13101785    10
COSMOS 2544 (759)       
1 44850C 19088A   21005.99979167 -.00000000  00000-0  00000-0 0    51
2 44850  64.8655 140.3693 0010270 259.6563 273.5444  2.13102035    16
COSMOS 2545 (760)       
1 45358C 20018A   21005.99979167 -.00000000  00000-0  00000-0 0    50
2 45358  64.8765  21.5726 0011590 254.9210 128.5064  2.13102387    19
